STARLINK-31447          
1 59302U 24056G   26068.48980564 -.00000466  00000+0 -74071-5 0  9993
2 59302  43.0009 231.8462 0000947 274.9567  85.1176 15.27571238111128
FLOCK 4G-26             
1 62633U 25009AA  26068.80489479  .00011283  00000+0  42469-3 0  9999
2 62633  97.4054 151.3913 0001988 299.1273  60.9767 15.27281631 63733
